{"type": "FeatureCollection", "features": [ {"type": "Feature", "properties": {"norad_id": 66593, "name": "STARLINK-36031", "group": "last-30-days", "lat": -39.23788450604876, "lon": 85.88511528193057, "alt_km": 446.05100129621496, "timestamp": "2025-12-20T14:38:00.687304+00:00", "meta": {"OBJECT_NAME": "STARLINK-36031", "OBJECT_ID": "2025-270F", "EPOCH": "2025-12-20T00:00:02.000160", "MEAN_MOTION": 15.4068271, "ECCENTRICITY": 0.0001727, "INCLINATION": 42.9996, "RA_OF_ASC_NODE": 150.6127, "ARG_OF_PERICENTER": 270.7135, "MEAN_ANOMALY": 235.4296, "EPHEMERIS_TYPE": 0, "CLASSIFICATION_TYPE": "U", "NORAD_CAT_ID": 66593, "ELEMENT_SET_NO": 999, "REV_AT_EPOCH": 556, "BSTAR": 0.0009194, "MEAN_MOTION_DOT": 0.00038273, "MEAN_MOTION_DDOT": 0}, "tle": {"line1": "1 66593U 25270F   25354.00002315  .00038273  00000+0  91940-3 0  9993", "line2": "2 66593  42.9996 150.6127 0001727 270.7135 235.4296 15.40682710  5565"}}, "geometry": {"type": "Point", "coordinates": [85.88511528193057, -39.23788450604876]}}, {"type": "Feature", "properties": {"norad_id": 66594, "name": "STARLINK-36032", "group": "last-30-days", "lat": 20.72951789000915, "lon": 170.8180611579518, "alt_km": 441.61698027345665, "timestamp": "2025-12-20T14:38:00.687314+00:00", "meta": {"OBJECT_NAME": "STARLINK-36032", "OBJECT_ID": "2025-270G", "EPOCH": "2025-12-20T06:00:02.999808", "MEAN_MOTION": 15.40665364, "ECCENTRICITY": 0.00015925, "INCLINATION": 42.9997, "RA_OF_ASC_NODE": 148.9288, "ARG_OF_PERICENTER": 250.3859, "MEAN_ANOMALY": 303.5533, "EPHEMERIS_TYPE": 0, "CLASSIFICATION_TYPE": "U", "NORAD_CAT_ID": 66594, "ELEMENT_SET_NO": 999, "REV_AT_EPOCH": 534, "BSTAR": 0.0007085261, "MEAN_MOTION_DOT": 0.00029373, "MEAN_MOTION_DDOT": 0}, "tle": {"line1": "1 66594U 25270G   25354.25003472  .00029373  00000+0  70853-3 0  9997", "line2": "2 66594  42.9997 148.9288 0001592 250.3859 303.5533 15.40665364  5345"}}, "geometry": {"type": "Point", "coordinates": [170.8180611579518, 20.72951789000915]}}, {"type": "Feature", "properties": {"norad_id": 66595, "name": "STARLINK-35711", "group": "last-30-days", "lat": 41.597399151184014, "lon": -105.6297882193526, "alt_km": 410.5101498061131, "timestamp": "2025-12-20T14:38:00.687325+00:00", "meta": {"OBJECT_NAME": "STARLINK-35711", "OBJECT_ID": "2025-270H", "EPOCH": "2025-12-20T03:22:00.602400", "MEAN_MOTION": 15.5018184, "ECCENTRICITY": 0.00034215, "INCLINATION": 42.999, "RA_OF_ASC_NODE": 149.4265, "ARG_OF_PERICENTER": 341.0071, "MEAN_ANOMALY": 19.0661, "EPHEMERIS_TYPE": 0, "CLASSIFICATION_TYPE": "U", "NORAD_CAT_ID": 66595, "ELEMENT_SET_NO": 999, "REV_AT_EPOCH": 560, "BSTAR": 0.0012292638, "MEAN_MOTION_DOT": 0.00071426, "MEAN_MOTION_DDOT": 0}, "tle": {"line1": "1 66595U 25270H   25354.14028475  .00071426  00000+0  12293-2 0  9995", "line2": "2 66595  42.9990 149.4265 0003421 341.0071  19.0661 15.50181840  5600"}}, "geometry": {"type": "Point", "coordinates": [-105.6297882193526, 41.597399151184014]}}, {"type": "Feature", "properties": {"norad_id": 66596, "name": "STARLINK-35811", "group": "last-30-days", "lat": -0.107632758390809, "lon": -32.51735822520697, "alt_km": 443.68622698418585, "timestamp": "2025-12-20T14:38:00.687335+00:00", "meta": {"OBJECT_NAME": "STARLINK-35811", "OBJECT_ID": "2025-270J", "EPOCH": "2025-12-19T19:11:07.176768", "MEAN_MOTION": 15.40716586, "ECCENTRICITY": 0.00025067, "INCLINATION": 42.999, "RA_OF_ASC_NODE": 152.0383, "ARG_OF_PERICENTER": 266.8739, "MEAN_ANOMALY": 93.1831, "EPHEMERIS_TYPE": 0, "CLASSIFICATION_TYPE": "U", "NORAD_CAT_ID": 66596, "ELEMENT_SET_NO": 999, "REV_AT_EPOCH": 554, "BSTAR": 0.00078994793, "MEAN_MOTION_DOT": 0.00032856, "MEAN_MOTION_DDOT": 0}, "tle": {"line1": "1 66596U 25270J   25353.79938862  .00032856  00000+0  78995-3 0  9992", "line2": "2 66596  42.9990 152.0383 0002506 266.8739  93.1831 15.40716586  5545"}}, "geometry": {"type": "Point", "coordinates": [-32.51735822520697, -0.107632758390809]}}, {"type": "Feature", "properties": {"norad_id": 66597, "name": "STARLINK-35820", "group": "last-30-days", "lat": -31.403302427737046, "lon": 8.176291082584319, "alt_km": 446.04174740147846, "timestamp": "2025-12-20T14:38:00.687345+00:00", "meta": {"OBJECT_NAME": "STARLINK-35820", "OBJECT_ID": "2025-270K", "EPOCH": "2025-12-19T17:24:51.873696", "MEAN_MOTION": 15.40703318, "ECCENTRICITY": 0.00014809, "INCLINATION": 42.9992, "RA_OF_ASC_NODE": 152.342, "ARG_OF_PERICENTER": 270.4129, "MEAN_ANOMALY": 89.6558, "EPHEMERIS_TYPE": 0, "CLASSIFICATION_TYPE": "U", "NORAD_CAT_ID": 66597, "ELEMENT_SET_NO": 999, "REV_AT_EPOCH": 553, "BSTAR": 0.00042249274, "MEAN_MOTION_DOT": 0.00017387, "MEAN_MOTION_DDOT": 0}, "tle": {"line1": "1 66597U 25270K   25353.72560039  .00017387  00000+0  42249-3 0  9998", "line2": "2 66597  42.9992 152.3420 0001480 270.4129  89.6558 15.40703318  5531"}}, "geometry": {"type": "Point", "coordinates": [8.176291082584319, -31.403302427737046]}}, {"type": "Feature", "properties": {"norad_id": 66598, "name": "STARLINK-35981", "group": "last-30-days", "lat": -27.854152040863042, "lon": 112.48878266552093, "alt_km": 445.6534639941192, "timestamp": "2025-12-20T14:38:00.687356+00:00", "meta": {"OBJECT_NAME": "STARLINK-35981", "OBJECT_ID": "2025-270L", "EPOCH": "2025-12-20T06:00:02.999808", "MEAN_MOTION": 15.40682727, "ECCENTRICITY": 0.00020654, "INCLINATION": 42.9999, "RA_OF_ASC_NODE": 149.11, "ARG_OF_PERICENTER": 266.6099, "MEAN_ANOMALY": 212.7563, "EPHEMERIS_TYPE": 0, "CLASSIFICATION_TYPE": "U", "NORAD_CAT_ID": 66598, "ELEMENT_SET_NO": 999, "REV_AT_EPOCH": 544, "BSTAR": 0.00067115887, "MEAN_MOTION_DOT": 0.00027819, "MEAN_MOTION_DDOT": 0}, "tle": {"line1": "1 66598U 25270L   25354.25003472  .00027819  00000+0  67116-3 0  9992", "line2": "2 66598  42.9999 149.1100 0002065 266.6099 212.7563 15.40682727  5446"}}, "geometry": {"type": "Point", "coordinates": [112.48878266552093, -27.854152040863042]}}, {"type": "Feature", "properties": {"norad_id": 66599, "name": "STARLINK-35930", "group": "last-30-days", "lat": 39.696026251465625, "lon": -96.31909941251794, "alt_km": 410.81967354026983, "timestamp": "2025-12-20T14:38:00.687366+00:00", "meta": {"OBJECT_NAME": "STARLINK-35930", "OBJECT_ID": "2025-270M", "EPOCH": "2025-12-19T04:08:36.625632", "MEAN_MOTION": 15.50348464, "ECCENTRICITY": 0.0002903, "INCLINATION": 42.9985, "RA_OF_ASC_NODE": 155.067, "ARG_OF_PERICENTER": 324.189, "MEAN_ANOMALY": 35.8775, "EPHEMERIS_TYPE": 0, "CLASSIFICATION_TYPE": "U", "NORAD_CAT_ID": 66599, "ELEMENT_SET_NO": 999, "REV_AT_EPOCH": 534, "BSTAR": -2.964998e-06, "MEAN_MOTION_DOT": -5.14e-06, "MEAN_MOTION_DDOT": 0}, "tle": {"line1": "1 66599U 25270M   25353.17264613 -.00000514  00000+0 -29650-5 0  9997", "line2": "2 66599  42.9985 155.0670 0002903 324.1890  35.8775 15.50348464  5346"}}, "geometry": {"type": "Point", "coordinates": [-96.31909941251794, 39.696026251465625]}}, {"type": "Feature", "properties": {"norad_id": 66600, "name": "STARLINK-35980", "group": "last-30-days", "lat": 4.415115194956172, "lon": 151.66787265611194, "alt_km": 443.2883495603519, "timestamp": "2025-12-20T14:38:00.687392+00:00", "meta": {"OBJECT_NAME": "STARLINK-35980", "OBJECT_ID": "2025-270N", "EPOCH": "2025-12-20T06:00:02.999808", "MEAN_MOTION": 15.40686212, "ECCENTRICITY": 0.00020479, "INCLINATION": 43.0001, "RA_OF_ASC_NODE": 148.9883, "ARG_OF_PERICENTER": 271.0672, "MEAN_ANOMALY": 258.0557, "EPHEMERIS_TYPE": 0, "CLASSIFICATION_TYPE": "U", "NORAD_CAT_ID": 66600, "ELEMENT_SET_NO": 999, "REV_AT_EPOCH": 550, "BSTAR": 0.0005556593, "MEAN_MOTION_DOT": 0.00022967, "MEAN_MOTION_DDOT": 0}, "tle": {"line1": "1 66600U 25270N   25354.25003472  .00022967  00000+0  55566-3 0  9991", "line2": "2 66600  43.0001 148.9883 0002047 271.0672 258.0557 15.40686212  5504"}}, "geometry": {"type": "Point", "coordinates": [151.66787265611194, 4.415115194956172]}}, {"type": "Feature", "properties": {"norad_id": 66601, "name": "STARLINK-35978", "group": "last-30-days", "lat": -42.9234804983622, "lon": 53.551307758707104, "alt_km": 446.10351586481556, "timestamp": "2025-12-20T14:38:00.687406+00:00", "meta": {"OBJECT_NAME": "STARLINK-35978", "OBJECT_ID": "2025-270P", "EPOCH": "2025-12-19T18:48:31.837248", "MEAN_MOTION": 15.40749629, "ECCENTRICITY": 0.00015732, "INCLINATION": 43.0003, "RA_OF_ASC_NODE": 151.9165, "ARG_OF_PERICENTER": 292.4203, "MEAN_ANOMALY": 67.6487, "EPHEMERIS_TYPE": 0, "CLASSIFICATION_TYPE": "U", "NORAD_CAT_ID": 66601, "ELEMENT_SET_NO": 999, "REV_AT_EPOCH": 527, "BSTAR": 0.0011909611, "MEAN_MOTION_DOT": 0.00049854, "MEAN_MOTION_DDOT": 0}, "tle": {"line1": "1 66601U 25270P   25353.78370182  .00049854  00000+0  11910-2 0  9992", "line2": "2 66601  43.0003 151.9165 0001573 292.4203  67.6487 15.40749629  5276"}}, "geometry": {"type": "Point", "coordinates": [53.551307758707104, -42.9234804983622]}}, {"type": "Feature", "properties": {"norad_id": 66602, "name": "STARLINK-36050", "group": "last-30-days", "lat": -8.606588968015714, "lon": -23.316707374648246, "alt_km": 444.3400459118475, "timestamp": "2025-12-20T14:38:00.687419+00:00", "meta": {"OBJECT_NAME": "STARLINK-36050", "OBJECT_ID": "2025-270Q", "EPOCH": "2025-12-19T17:34:32.507616", "MEAN_MOTION": 15.40725936, "ECCENTRICITY": 0.00016299, "INCLINATION": 42.9991, "RA_OF_ASC_NODE": 152.3934, "ARG_OF_PERICENTER": 264.4094, "MEAN_ANOMALY": 95.6576, "EPHEMERIS_TYPE": 0, "CLASSIFICATION_TYPE": "U", "NORAD_CAT_ID": 66602, "ELEMENT_SET_NO": 999, "REV_AT_EPOCH": 532, "BSTAR": 0.00096253601, "MEAN_MOTION_DOT": 0.00040151, "MEAN_MOTION_DDOT": 0}, "tle": {"line1": "1 66602U 25270Q   25353.73232069  .00040151  00000+0  96254-3 0  9995", "line2": "2 66602  42.9991 152.3934 0001629 264.4094  95.6576 15.40725936  5320"}}, "geometry": {"type": "Point", "coordinates": [-23.316707374648246, -8.606588968015714]}}]}